[{"OBJECT_NAME":"NUSAT-41 (C PAYNE-G)","OBJECT_ID":"2023-084N","EPOCH":"2026-03-09T21:55:54.837696","MEAN_MOTION":15.29680045,"ECCENTRICITY":0.00062175,"INCLINATION":97.5351,"RA_OF_ASC_NODE":204.1011,"ARG_OF_PERICENTER":322.2064,"MEAN_ANOMALY":37.8738,"EPHEMERIS_TYPE":0,"CLASSIFICATION_TYPE":"U","NORAD_CAT_ID":56944,"ELEMENT_SET_NO":999,"REV_AT_EPOCH":15260,"BSTAR":0.00059912824,"MEAN_MOTION_DOT":0.0001718,"MEAN_MOTION_DDOT":0},{"OBJECT_NAME":"STARLINK-34247","OBJECT_ID":"2025-167F","EPOCH":"2026-03-09T06:54:57.430944","MEAN_MOTION":15.30140319,"ECCENTRICITY":0.00011315,"INCLINATION":53.1607,"RA_OF_ASC_NODE":26.0683,"ARG_OF_PERICENTER":114.2157,"MEAN_ANOMALY":245.8962,"EPHEMERIS_TYPE":0,"CLASSIFICATION_TYPE":"U","NORAD_CAT_ID":65083,"ELEMENT_SET_NO":999,"REV_AT_EPOCH":3345,"BSTAR":0.0013333294,"MEAN_MOTION_DOT":0.00039266,"MEAN_MOTION_DDOT":0}]
